{
  "norad_id": 63274,
  "name": "STARLINK-11615 [DTC]",
  "history": [
    {
      "epoch": "2026-03-28T19:10:44.521824Z",
      "apogee_km": 357.6156804979237,
      "perigee_km": 353.79435982832183,
      "latitude_deg": 6.6804443402861895e-06,
      "longitude_deg": -116.7429912953972,
      "height_km": 354.9990199506801,
      "semi_major_axis_km": 6733.8420201631225,
      "eccentricity": 0.00028374,
      "inclination_deg": 43.0018,
      "raan_deg": 357.1569,
      "arg_perigee_deg": 284.5403,
      "mean_anomaly_deg": 75.515,
      "mean_motion_rev_day": 15.71116454
    },
    {
      "epoch": "2026-03-30T04:45:03.977280Z",
      "apogee_km": 357.8158778924344,
      "perigee_km": 355.1322700716737,
      "latitude_deg": -3.245543692624305e-07,
      "longitude_deg": 89.86848153155779,
      "height_km": 356.1390983859665,
      "semi_major_axis_km": 6734.611073982054,
      "eccentricity": 0.00019924,
      "inclination_deg": 43.0004,
      "raan_deg": 348.7282,
      "arg_perigee_deg": 274.6144,
      "mean_anomaly_deg": 85.4496,
      "mean_motion_rev_day": 15.70847343
    },
    {
      "epoch": "2026-03-30T16:57:32.717952Z",
      "apogee_km": 357.41865213828714,
      "perigee_km": 355.15628958154684,
      "latitude_deg": 2.33376742981319e-05,
      "longitude_deg": -96.8180095166188,
      "height_km": 356.20073466224164,
      "semi_major_axis_km": 6734.424470859917,
      "eccentricity": 0.00016797,
      "inclination_deg": 43.0002,
      "raan_deg": 345.6628,
      "arg_perigee_deg": 262.8596,
      "mean_anomaly_deg": 97.2081,
      "mean_motion_rev_day": 15.70912633
    },
    {
      "epoch": "2026-03-31T09:44:43.749024Z",
      "apogee_km": 357.6571992829986,
      "perigee_km": 354.95130078873444,
      "latitude_deg": 1.6661633050513593e-05,
      "longitude_deg": 6.481628623579376,
      "height_km": 355.37649273298706,
      "semi_major_axis_km": 6734.441250035866,
      "eccentricity": 0.0002009,
      "inclination_deg": 43.0008,
      "raan_deg": 341.4478,
      "arg_perigee_deg": 58.9844,
      "mean_anomaly_deg": 301.1221,
      "mean_motion_rev_day": 15.70906762
    },
    {
      "epoch": "2026-04-01T01:00:18.024192Z",
      "apogee_km": 358.4718234966376,
      "perigee_km": 353.80550920191035,
      "latitude_deg": 1.6365421048051754e-05,
      "longitude_deg": 133.12992973897406,
      "height_km": 355.96940439986474,
      "semi_major_axis_km": 6734.275666349274,
      "eccentricity": 0.00034646,
      "inclination_deg": 43.0008,
      "raan_deg": 337.6156,
      "arg_perigee_deg": 268.6052,
      "mean_anomaly_deg": 91.4419,
      "mean_motion_rev_day": 15.70964701
    },
    {
      "epoch": "2026-04-02T16:40:49.889568Z",
      "apogee_km": 357.51953144506297,
      "perigee_km": 355.3994804649883,
      "latitude_deg": 3.5682009252142775e-05,
      "longitude_deg": -113.59913602540358,
      "height_km": 356.35684319279477,
      "semi_major_axis_km": 6734.596505955025,
      "eccentricity": 0.0001574,
      "inclination_deg": 42.9982,
      "raan_deg": 327.6487,
      "arg_perigee_deg": 263.2287,
      "mean_anomaly_deg": 96.8402,
      "mean_motion_rev_day": 15.7085244
    },
    {
      "epoch": "2026-04-02T22:47:04.318656Z",
      "apogee_km": 357.5880994870504,
      "perigee_km": 355.0159478463511,
      "latitude_deg": 7.63102694145424e-06,
      "longitude_deg": 153.05583033369027,
      "height_km": 355.943355571749,
      "semi_major_axis_km": 6734.4390236667,
      "eccentricity": 0.00019097,
      "inclination_deg": 42.9994,
      "raan_deg": 326.1145,
      "arg_perigee_deg": 275.8668,
      "mean_anomaly_deg": 84.1982,
      "mean_motion_rev_day": 15.70907541
    },
    {
      "epoch": "2026-04-03T07:56:27.067776Z",
      "apogee_km": 357.05427372998565,
      "perigee_km": 355.74413705658935,
      "latitude_deg": 8.718912991101886e-06,
      "longitude_deg": 13.034406836269701,
      "height_km": 355.62315509910036,
      "semi_major_axis_km": 6734.536205393288,
      "eccentricity": 9.727e-05,
      "inclination_deg": 43.0005,
      "raan_deg": 323.8139,
      "arg_perigee_deg": 33.4182,
      "mean_anomaly_deg": 326.6747,
      "mean_motion_rev_day": 15.70873538
    },
    {
      "epoch": "2026-04-04T17:30:45.007776Z",
      "apogee_km": 356.7849965885025,
      "perigee_km": 355.8502542864917,
      "latitude_deg": 1.557365824052165e-05,
      "longitude_deg": -140.3477752697523,
      "height_km": 356.55418665829364,
      "semi_major_axis_km": 6734.454625437496,
      "eccentricity": 6.94e-05,
      "inclination_deg": 42.9961,
      "raan_deg": 315.3852,
      "arg_perigee_deg": 175.5851,
      "mean_anomaly_deg": 184.5023,
      "mean_motion_rev_day": 15.70902082
    },
    {
      "epoch": "2026-04-05T14:52:36.622848Z",
      "apogee_km": 357.656294518144,
      "perigee_km": 354.91269120195284,
      "latitude_deg": -1.229488951849835e-05,
      "longitude_deg": -107.0568713218313,
      "height_km": 356.2348571002432,
      "semi_major_axis_km": 6734.421492860049,
      "eccentricity": 0.0002037,
      "inclination_deg": 42.9993,
      "raan_deg": 310.0186,
      "arg_perigee_deg": 262.5639,
      "mean_anomaly_deg": 97.4997,
      "mean_motion_rev_day": 15.70913675
    },
    {
      "epoch": "2026-04-05T14:52:36.623712Z",
      "apogee_km": 357.65609248550027,
      "perigee_km": 354.9128932345984,
      "latitude_deg": -1.463343836490044e-05,
      "longitude_deg": -107.05687742545283,
      "height_km": 356.23483095681223,
      "semi_major_axis_km": 6734.421492860049,
      "eccentricity": 0.00020367,
      "inclination_deg": 42.9993,
      "raan_deg": 310.0186,
      "arg_perigee_deg": 262.5639,
      "mean_anomaly_deg": 97.4997,
      "mean_motion_rev_day": 15.70913675
    },
    {
      "epoch": "2026-04-06T00:01:57.850464Z",
      "apogee_km": 357.525222523107,
      "perigee_km": 355.0415682812836,
      "latitude_deg": -9.22399855662795e-06,
      "longitude_deg": 112.93146355842032,
      "height_km": 355.66242191881906,
      "semi_major_axis_km": 6734.420395402195,
      "eccentricity": 0.0001844,
      "inclination_deg": 43.0,
      "raan_deg": 307.7214,
      "arg_perigee_deg": 288.4862,
      "mean_anomaly_deg": 71.5805,
      "mean_motion_rev_day": 15.70914059
    }
  ]
}